{"spkid": "50559804", "covariance": {"data": [["6.622599636612496E-14", "-9.371577558620292E-14", "2.217713526710417E-12", "5.498888641104499E-13", "3.556664305993224E-12", "-4.274826807866265E-12"], ["-9.371577558620292E-14", "1.326220075629941E-13", "-3.124949229447402E-12", "-7.723022281194119E-13", "-5.026860536948564E-12", "6.051005300793641E-12"], ["2.217713526710417E-12", "-3.124949229447402E-12", "1.002493471739345E-9", "3.877357916739632E-10", "5.803552515559736E-10", "1.003555290768055E-10"], ["5.498888641104499E-13", "-7.723022281194119E-13", "3.877357916739632E-10", "1.615509644011561E-9", "-1.193391077724248E-9", "8.662445735474163E-10"], ["3.556664305993224E-12", "-5.026860536948564E-12", "5.803552515559736E-10", "-1.193391077724248E-9", "1.796031889636514E-9", "-8.800041506685553E-10"], ["-4.274826807866265E-12", "6.051005300793641E-12", "1.003555290768055E-10", "8.662445735474163E-10", "-8.800041506685553E-10", "1.026904124662157E-9"]], "elements": [{"value": ".359153543959132", "title": "eccentricity", "units": null, "name": "e", "sigma": 2.5734412051983e-07, "label": "e"}, {"units": "au", "value": ".870431252829229", "title": "perihelion distance", "name": "q", "sigma": 3.64173046178591e-07, "label": "q"}, {"label": "tp", "sigma": 3.16621773057278e-05, "name": "tp", "value": "2457295.334044808755", "title": "time of perihelion passage", "units": "TDB"}, {"label": "node", "units": "deg", "title": "longitude of the ascending node", "value": "330.0867537627125", "sigma": 4.0193402991182e-05, "name": "om"}, {"label": "peri", "title": "argument of perihelion", "value": "111.4376272643265", "units": "deg", "sigma": 4.23796164404129e-05, "name": "w"}, {"sigma": 3.20453448204596e-05, "name": "i", "units": "deg", "title": "inclination", "value": "13.28602392516565", "label": "i"}], "labels": ["e", "q", "tp", "node", "peri", "i"], "epoch": "2457477.5"}, "elements": [{"sigma": "2.5768E-7", "name": "e", "units": null, "title": "eccentricity", "value": ".3591213512085412", "label": "e"}, {"label": "a", "units": "au", "title": "semi-major axis", "value": "1.358188117921876", "sigma": "2.2731E-8", "name": "a"}, {"sigma": "3.6434E-7", "name": "q", "units": "au", "value": ".8704337658183867", "title": "perihelion distance", "label": "q"}, {"label": "i", "units": "deg", "value": "13.28574744293813", "title": "inclination; angle with respect to x-y ecliptic plane", "name": "i", "sigma": "3.2053E-5"}, {"label": "node", "title": "longitude of the ascending node", "value": "329.9959738850589", "units": "deg", "sigma": "4.0265E-5", "name": "om"}, {"sigma": "4.2522E-5", "name": "w", "title": "argument of perihelion", "value": "111.5698067839642", "units": "deg", "label": "peri"}, {"units": "deg", "value": "271.6600483574816", "title": "mean anomaly", "sigma": "6.0162E-5", "name": "ma", "label": "M"}, {"sigma": ".0001", "name": "tp", "units": "TDB", "title": "time of perihelion passage", "value": "2461342.370785525437", "label": "tp"}, {"label": "period", "sigma": "1.4514E-5", "name": "per", "units": "d", "title": "sidereal orbital period", "value": "578.1470539607533"}, {"label": "n", "units": "deg/d", "title": "mean motion", "value": ".622678949125006", "name": "n", "sigma": "1.5632E-8"}, {"name": "ad", "sigma": "3.0895E-8", "value": "1.845942470025366", "title": "aphelion distance", "units": "au", "label": "Q"}], "epoch": "2461200.5"}